METAR: KMYF 090253Z 31004KT 10SM SCT017 17/13 A3005 RMK AO2 SLP174 T01720133 52006