KMYF 090153Z 31005KT 10SM CLR 18/13 A3005 RMK AO2 SLP173 T01780133